GLOBALSTAR M063         
1 26081U 00008A   25172.78225160 -.00000099  00000+0 -24170-3 0  9999
2 26081  51.9952  99.4695 0004837 331.6538  43.4688 11.86174940158124
GLOBALSTAR M062         
1 26082U 00008B   25173.12392758 -.00000103  00000+0 -30856-4 0  9992
2 26082  51.9856  81.2640 0007237 117.0834  23.7518 12.43467514159736
GLOBALSTAR M060         
1 26083U 00008C   25173.00828108 -.00000074  00000+0  16669-3 0  9994
2 26083  52.0038  42.2947 0003672 122.8709  25.2257 12.17665789153121
GLOBALSTAR M064         
1 26084U 00008D   25172.76899032 -.00000085  00000+0 -20091-4 0  9999
2 26084  52.0006 198.2796 0001170  68.2192 291.8765 11.88534696167647
GLOBALSTAR M065         
1 31571U 07020A   25173.04557737 -.00000067  00000+0  20300-3 0  9993
2 31571  51.9869 211.4815 0009932 319.3888  50.3742 12.62009367834329
GLOBALSTAR M069         
1 31573U 07020C   25172.76871105 -.00000073  00000+0  18371-3 0  9993
2 31573  51.9919 192.2648 0001308 173.3573 358.0863 12.23446730834682
GLOBALSTAR M072         
1 31574U 07020D   25173.23541831 -.00000076  00000+0  10449-3 0  9998
2 31574  51.9952 338.5301 0000857  24.7966 146.9162 11.91649758832407
GLOBALSTAR M071         
1 31576U 07020F   25172.83026933 -.00000121  00000+0 -29938-3 0  9991
2 31576  52.0037 217.8190 0000922 134.9019  36.4798 12.18255385495509
